KUIPER-00027            
1 63740U 25088S   25277.71368803  .00006823  00000+0  93681-3 0  9990
2 63740  51.9006  65.0824 0004665  19.6861 340.4280 14.79301808 24525
KUIPER-00028            
1 63741U 25088T   25277.79322943  .00007354  00000+0  10104-2 0  9992
2 63741  51.8979  62.6596 0004441  40.3882 319.7409 14.79176298 24973
KUIPER-00029            
1 63742U 25088U   25277.84704757  .00004955  00000+0  67975-3 0  9999
2 63742  51.9009  60.4711 0008178 341.7730  18.2939 14.79847260 24530
KUIPER-00030            
1 63743U 25088V   25278.19043483 -.00015124  00000+0 -19542-2 0  9999
2 63743  51.9000  78.1507 0013379 278.9826  80.9622 14.79969005 24602
KUIPER-00031            
1 63744U 25088W   25277.79983676 -.00001082  00000+0 -11280-3 0  9992
2 63744  51.8971  65.9513 0003509 304.6249  55.4382 14.79935544 24454
KUIPER-00032            
1 63745U 25088X   25278.08776455  .00020408  00000+0  68385-3 0  9990
2 63745  51.8728  52.7343 0004822 288.2639  71.7820 15.30889312 25660
KUIPER-00033            
1 63746U 25088Y   25277.76748663  .00005135  00000+0  70192-3 0  9994
2 63746  51.8985  96.0792 0004507  42.5625 317.5686 14.79943838 24511
KUIPER-00034            
1 63747U 25088Z   25278.16671295  .00011107  00000+0  14885-2 0  9998
2 63747  51.9012  56.5981 0001484 305.2687 283.5248 14.79792704  5466
